[{"OBJECT_NAME":"STARLINK-1559","OBJECT_ID":"2020-055BC","EPOCH":"2026-03-09T05:36:23.522976","MEAN_MOTION":15.29461733,"ECCENTRICITY":0.0004229,"INCLINATION":53.0254,"RA_OF_ASC_NODE":76.0659,"ARG_OF_PERICENTER":33.971,"MEAN_ANOMALY":326.1559,"EPHEMERIS_TYPE":0,"CLASSIFICATION_TYPE":"U","NORAD_CAT_ID":46077,"ELEMENT_SET_NO":999,"REV_AT_EPOCH":30951,"BSTAR":0.0014778793,"MEAN_MOTION_DOT":0.00042685,"MEAN_MOTION_DDOT":0},{"OBJECT_NAME":"STARLINK-32164","OBJECT_ID":"2024-131S","EPOCH":"2026-03-09T22:48:37.778400","MEAN_MOTION":15.301867,"ECCENTRICITY":0.00013434,"INCLINATION":53.1609,"RA_OF_ASC_NODE":51.5632,"ARG_OF_PERICENTER":88.1024,"MEAN_ANOMALY":272.0131,"EPHEMERIS_TYPE":0,"CLASSIFICATION_TYPE":"U","NORAD_CAT_ID":60271,"ELEMENT_SET_NO":999,"REV_AT_EPOCH":9165,"BSTAR":4.3623419e-5,"MEAN_MOTION_DOT":9.32e-6,"MEAN_MOTION_DDOT":0}]
